<?xml version="1.0" encoding="ISO-8859-1"?><cdm xmlns:ndm="urn:ccsds:recommendation:navigation:schema:ndmxml" xmlns:xsi="http://www.w3.org/2001/XMLSchema-instance" id="CCSDS_CDM_VERS" version="1.0" xsi:noNamespaceSchemaLocation="http://sanaregistry.org/r/ndmxml/ndmxml-1.0-master.xsd"><header><COMMENT>Secondary = CDM: CSpOC.15_328025442183 (TCA: 02/12/2023 18:37:15.009Z)</COMMENT><COMMENT>CREATION_ORIGIN :CSpOC.15_328025442183.231202_1837.12462.SAT_1_2024_001A.N00001.N20923.3823.440</COMMENT><COMMENT>SECONDARY_SOURCE :JSpOC</COMMENT><COMMENT>EVENT_ID:CA-24001A-90094A-202312021836</COMMENT><CREATION_DATE>2023-11-24T04:32:15.493</CREATION_DATE><ORIGINATOR>CAESAR</ORIGINATOR><MESSAGE_FOR>SAT_1</MESSAGE_FOR><MESSAGE_ID>TRJ18785769</MESSAGE_ID></header><body><relativeMetadataData><TCA>2023-12-02T18:37:14.939</TCA><MISS_DISTANCE units="m">3827.732234300821</MISS_DISTANCE><RELATIVE_SPEED units="m/s">725.2689615534887</RELATIVE_SPEED><relativeStateVector><RELATIVE_POSITION_R units="m">440.46822487687075</RELATIVE_POSITION_R><RELATIVE_POSITION_T units="m">3775.5239525731045</RELATIVE_POSITION_T><RELATIVE_POSITION_N units="m">450.48938270078656</RELATIVE_POSITION_N><RELATIVE_VELOCITY_R units="m/s">-0.5101181838448404</RELATIVE_VELOCITY_R><RELATIVE_VELOCITY_T units="m/s">-85.89226798226547</RELATIVE_VELOCITY_T><RELATIVE_VELOCITY_N units="m/s">720.1647899426749</RELATIVE_VELOCITY_N></relativeStateVector><START_SCREEN_PERIOD>2023-11-24T00:09:00.000</START_SCREEN_PERIOD><STOP_SCREEN_PERIOD>2023-12-08T00:09:00.000</STOP_SCREEN_PERIOD><SCREEN_VOLUME_FRAME>RTN</SCREEN_VOLUME_FRAME><SCREEN_VOLUME_SHAPE>BOX</SCREEN_VOLUME_SHAPE><SCREEN_VOLUME_X units="m">24000.0</SCREEN_VOLUME_X><SCREEN_VOLUME_Y units="m">436800.0</SCREEN_VOLUME_Y><SCREEN_VOLUME_Z units="m">36000.0</SCREEN_VOLUME_Z><SCREEN_ENTRY_TIME>2023-12-02T18:36:15.009</SCREEN_ENTRY_TIME><SCREEN_EXIT_TIME>2023-12-02T18:38:15.008</SCREEN_EXIT_TIME></relativeMetadataData><segment><metadata><OBJECT>OBJECT1</OBJECT><OBJECT_DESIGNATOR>00001</OBJECT_DESIGNATOR><CATALOG_NAME>SATCAT</CATALOG_NAME><OBJECT_NAME>SAT_1</OBJECT_NAME><INTERNATIONAL_DESIGNATOR>2024-001A</INTERNATIONAL_DESIGNATOR><OBJECT_TYPE>UNKNOWN</OBJECT_TYPE><EPHEMERIS_NAME>2024-001A_SAT_1_OPER_20231123T150500_S20231123T150000_E20231227T120000.jspoc</EPHEMERIS_NAME><COVARIANCE_METHOD>CALCULATED</COVARIANCE_METHOD><MANEUVERABLE>YES</MANEUVERABLE><REF_FRAME>ITRF</REF_FRAME></metadata><data><odParameters/><additionalParameters><COMMENT>JAC_LAST_ACC_OB = N/A</COMMENT><AREA_PC units="m**2">1231.6299839133426</AREA_PC></additionalParameters><stateVector><X units="km">41841.22149590124</X><Y units="km">-5327.607849313538</Y><Z units="km">-18.514030676198935</Z><X_DOT units="km/s">0.001703989693908511</X_DOT><Y_DOT units="km/s">-0.0023183024866098093</Y_DOT><Z_DOT units="km/s">0.0039930239097866775</Z_DOT></stateVector><covarianceMatrix><CR_R units="m**2">1320.750791238833</CR_R><CT_R units="m**2">-1.0941164640954071E-11</CT_R><CT_T units="m**2">258044.64115302992</CT_T><CN_R units="m**2">-2.8421709430404007E-14</CN_R><CN_T units="m**2">1.1368683772161603E-13</CN_T><CN_N units="m**2">51719.4564974454</CN_N><CRDOT_R units="m**2/s">-1.441616194908929E-16</CRDOT_R><CRDOT_T units="m**2/s">-18.804173788278188</CRDOT_T><CRDOT_N units="m**2/s">-3.469446951953614E-18</CRDOT_N><CRDOT_RDOT units="m**2/s**2">0.0013702937223566388</CRDOT_RDOT><CTDOT_R units="m**2/s">0.09624546860762899</CTDOT_R><CTDOT_T units="m**2/s">-3.640771276936617E-17</CTDOT_T><CTDOT_N units="m**2/s">-5.827586677109586E-19</CTDOT_N><CTDOT_RDOT units="m**2/s**2">1.0531709118582324E-19</CTDOT_RDOT><CTDOT_TDOT units="m**2/s**2">7.013579161904965E-6</CTDOT_TDOT><CNDOT_R units="m**2/s">0.0</CNDOT_R><CNDOT_T units="m**2/s">0.0</CNDOT_T><CNDOT_N units="m**2/s">0.0</CNDOT_N><CNDOT_RDOT units="m**2/s**2">9.297588573680467E-23</CNDOT_RDOT><CNDOT_TDOT units="m**2/s**2">5.715348188496089E-23</CNDOT_TDOT><CNDOT_NDOT units="m**2/s**2">-3.356550365276811E-26</CNDOT_NDOT><CDRG_R units="m**3/kg">0.0</CDRG_R><CDRG_T units="m**3/kg">0.0</CDRG_T><CDRG_N units="m**3/kg">0.0</CDRG_N><CDRG_RDOT units="m**3/(kg*s)">0.0</CDRG_RDOT><CDRG_TDOT units="m**3/(kg*s)">0.0</CDRG_TDOT><CDRG_NDOT units="m**3/(kg*s)">0.0</CDRG_NDOT><CDRG_DRG units="m**4/kg**2">0.0</CDRG_DRG><CSRP_R units="m**3/kg">0.0</CSRP_R><CSRP_T units="m**3/kg">0.0</CSRP_T><CSRP_N units="m**3/kg">0.0</CSRP_N><CSRP_RDOT units="m**3/(kg*s)">0.0</CSRP_RDOT><CSRP_TDOT units="m**3/(kg*s)">0.0</CSRP_TDOT><CSRP_NDOT units="m**3/(kg*s)">0.0</CSRP_NDOT><CSRP_DRG units="m**4/kg**2">0.0</CSRP_DRG><CSRP_SRP units="m**4/kg**2">0.0</CSRP_SRP></covarianceMatrix></data></segment><segment><metadata><OBJECT>OBJECT2</OBJECT><OBJECT_DESIGNATOR>20923</OBJECT_DESIGNATOR><CATALOG_NAME>SATCAT</CATALOG_NAME><OBJECT_NAME>GORIZONT 21</OBJECT_NAME><INTERNATIONAL_DESIGNATOR>1990-094A</INTERNATIONAL_DESIGNATOR><OBJECT_TYPE>UNKNOWN</OBJECT_TYPE><EPHEMERIS_NAME>NONE</EPHEMERIS_NAME><COVARIANCE_METHOD>CALCULATED</COVARIANCE_METHOD><MANEUVERABLE>NO</MANEUVERABLE><REF_FRAME>ITRF</REF_FRAME><GRAVITY_MODEL>EIGEN GL04S: 8D 8O</GRAVITY_MODEL><ATMOSPHERIC_MODEL>NONE</ATMOSPHERIC_MODEL><N_BODY_PERTURBATIONS>MOON,SUN</N_BODY_PERTURBATIONS><SOLAR_RAD_PRESSURE>YES</SOLAR_RAD_PRESSURE><EARTH_TIDES>NO</EARTH_TIDES></metadata><data><odParameters><TIME_LASTOB_START>2023-11-23T02:55:10.419</TIME_LASTOB_START><TIME_LASTOB_END>2023-11-24T02:55:10.419</TIME_LASTOB_END><RECOMMENDED_OD_SPAN units="d">27.94</RECOMMENDED_OD_SPAN><ACTUAL_OD_SPAN units="d">27.94</ACTUAL_OD_SPAN><OBS_AVAILABLE>380</OBS_AVAILABLE><OBS_USED>380</OBS_USED><RESIDUALS_ACCEPTED units="%">98.9</RESIDUALS_ACCEPTED><WEIGHTED_RMS>1.014</WEIGHTED_RMS></odParameters><additionalParameters><COMMENT>JAC_LAST_ACC_OB = Greater Than (&gt;) 48 Hours</COMMENT><AREA_PC units="m**2">101.93376457451753</AREA_PC><CR_AREA_OVER_MASS units="m**2/kg">0.006842385096</CR_AREA_OVER_MASS></additionalParameters><stateVector><X units="km">41842.13544429421</X><Y units="km">-5323.918808684701</Y><Z units="km">-18.0588256330722</Z><X_DOT units="km/s">-0.009455649239765825</X_DOT><Y_DOT units="km/s">-0.08842707233109245</Y_DOT><Z_DOT units="km/s">0.724045833472463</Z_DOT></stateVector><covarianceMatrix><CR_R units="m**2">12376.500712361832</CR_R><CT_R units="m**2">-8714.022952421088</CT_R><CT_T units="m**2">1244871.479920039</CT_T><CN_R units="m**2">-96.81573237699486</CN_R><CN_T units="m**2">-99.98476357285122</CN_T><CN_N units="m**2">780.3067433322726</CN_N><CRDOT_R units="m**2/s">0.4787781055731253</CRDOT_R><CRDOT_T units="m**2/s">-90.77771290836945</CRDOT_T><CRDOT_N units="m**2/s">0.009651068294694198</CRDOT_N><CRDOT_RDOT units="m**2/s**2">0.006624283979657292</CRDOT_RDOT><CTDOT_R units="m**2/s">-0.9009876911810893</CTDOT_R><CTDOT_T units="m**2/s">0.1916246768201479</CTDOT_T><CTDOT_N units="m**2/s">0.007102194748747799</CTDOT_N><CTDOT_RDOT units="m**2/s**2">-2.5006633109311147E-6</CTDOT_RDOT><CTDOT_TDOT units="m**2/s**2">6.57505399497403E-5</CTDOT_TDOT><CNDOT_R units="m**2/s">-0.005911523144900138</CNDOT_R><CNDOT_T units="m**2/s">-0.04960341221806059</CNDOT_T><CNDOT_N units="m**2/s">0.05019029558725982</CNDOT_N><CNDOT_RDOT units="m**2/s**2">3.7903190392620454E-6</CNDOT_RDOT><CNDOT_TDOT units="m**2/s**2">4.486144182183039E-7</CNDOT_TDOT><CNDOT_NDOT units="m**2/s**2">6.840707371935976E-5</CNDOT_NDOT><CDRG_R units="m**3/kg">0.0</CDRG_R><CDRG_T units="m**3/kg">0.0</CDRG_T><CDRG_N units="m**3/kg">0.0</CDRG_N><CDRG_RDOT units="m**3/(kg*s)">0.0</CDRG_RDOT><CDRG_TDOT units="m**3/(kg*s)">0.0</CDRG_TDOT><CDRG_NDOT units="m**3/(kg*s)">0.0</CDRG_NDOT><CDRG_DRG units="m**4/kg**2">0.0</CDRG_DRG><CSRP_R units="m**3/kg">0.0</CSRP_R><CSRP_T units="m**3/kg">0.0</CSRP_T><CSRP_N units="m**3/kg">0.0</CSRP_N><CSRP_RDOT units="m**3/(kg*s)">0.0</CSRP_RDOT><CSRP_TDOT units="m**3/(kg*s)">0.0</CSRP_TDOT><CSRP_NDOT units="m**3/(kg*s)">0.0</CSRP_NDOT><CSRP_DRG units="m**4/kg**2">0.0</CSRP_DRG><CSRP_SRP units="m**4/kg**2">0.0</CSRP_SRP></covarianceMatrix></data></segment></body></cdm>